{
    "links": {
        "self": "http://www.neowsapp.com/rest/v1/neo/3841946?api_key=iIulBulltgU6a56xZRHN4H3l9WmuAYTsLGpBGhQ2"
    },
    "id": "3841946",
    "neo_reference_id": "3841946",
    "name": "(2019 JP7)",
    "designation": "2019 JP7",
    "nasa_jpl_url": "http://ssd.jpl.nasa.gov/sbdb.cgi?sstr=3841946",
    "absolute_magnitude_h": 22.0,
    "estimated_diameter": {
        "kilometers": {
            "estimated_diameter_min": 0.1058168859,
            "estimated_diameter_max": 0.2366137501
        },
        "meters": {
            "estimated_diameter_min": 105.8168859331,
            "estimated_diameter_max": 236.6137501138
        },
        "miles": {
            "estimated_diameter_min": 0.0657515442,
            "estimated_diameter_max": 0.1470249225
        },
        "feet": {
            "estimated_diameter_min": 347.1682720448,
            "estimated_diameter_max": 776.2918559233
        }
    },
    "is_potentially_hazardous_asteroid": false,
    "close_approach_data": [
        {
            "close_approach_date": "2019-08-14",
            "close_approach_date_full": "2019-Aug-14 19:57",
            "epoch_date_close_approach": 1565812620000,
            "relative_velocity": {
                "kilometers_per_second": "13.2142594958",
                "kilometers_per_hour": "47571.3341849315",
                "miles_per_hour": "29558.977066187"
            },
            "miss_distance": {
                "astronomical": "0.4007948505",
                "lunar": "155.9091968445",
                "kilometers": "59958055.941768435",
                "miles": "37256208.368877003"
            },
            "orbiting_body": "Earth"
        },
        {
            "close_approach_date": "2022-07-07",
            "close_approach_date_full": "2022-Jul-07 03:22",
            "epoch_date_close_approach": 1657164120000,
            "relative_velocity": {
                "kilometers_per_second": "4.8965099273",
                "kilometers_per_hour": "17627.435738274",
                "miles_per_hour": "10953.0030563736"
            },
            "miss_distance": {
                "astronomical": "0.1599500751",
                "lunar": "62.2205792139",
                "kilometers": "23928190.541300037",
                "miles": "14868288.1506810306"
            },
            "orbiting_body": "Earth"
        },
        {
            "close_approach_date": "2025-06-09",
            "close_approach_date_full": "2025-Jun-09 12:37",
            "epoch_date_close_approach": 1749472620000,
            "relative_velocity": {
                "kilometers_per_second": "14.6106101201",
                "kilometers_per_hour": "52598.1964322128",
                "miles_per_hour": "32682.4737775602"
            },
            "miss_distance": {
                "astronomical": "0.4146713727",
                "lunar": "161.3071639803",
                "kilometers": "62033954.105896149",
                "miles": "38546111.6744548962"
            },
            "orbiting_body": "Earth"
        }
    ],
    "orbital_data": {
        "orbit_id": "1",
        "orbit_determination_date": "2019-05-24 09:12:04",
        "first_observation_date": "2019-05-07",
        "last_observation_date": "2019-05-24",
        "data_arc_in_days": 17,
        "observations_used": 14,
        "orbit_uncertainty": "7",
        "minimum_orbit_intersection": ".159756",
        "jupiter_tisserand_invariant": "3.648",
        "epoch_osculation": "2459000.5",
        "eccentricity": ".451475463309595",
        "semi_major_axis": "2.053013397263131",
        "inclination": "6.706661870616647",
        "ascending_node_longitude": "40.86199355460594",
        "orbital_period": "1074.449732339568",
        "perihelion_distance": "1.126128222552953",
        "perihelion_argument": "252.1855847223168",
        "aphelion_distance": "2.979898571973309",
        "perihelion_time": "2458701.346018553915",
        "mean_anomaly": "100.2331054483939",
        "mean_motion": ".3350552279594464",
        "equinox": "J2000",
        "orbit_class": {
            "orbit_class_type": "AMO",
            "orbit_class_description": "Near-Earth asteroid orbits similar to that of 1221 Amor",
            "orbit_class_range": "1.017 AU < q (perihelion) < 1.3 AU"
        }
    },
    "is_sentry_object": false
}